{"type": "FeatureCollection", "features": [ {"type": "Feature", "properties": {"norad_id": 66510, "name": "STARLINK-35600", "group": "last-30-days", "lat": -34.45735769182175, "lon": 120.68776398062542, "alt_km": 380.2932008164207, "timestamp": "2025-12-05T09:41:17.889095+00:00", "meta": {"OBJECT_NAME": "STARLINK-35600", "OBJECT_ID": "2025-263AB", "EPOCH": "2025-12-04T18:00:02.000160", "MEAN_MOTION": 15.66052687, "ECCENTRICITY": 0.0001307, "INCLINATION": 42.9987, "RA_OF_ASC_NODE": 172.0195, "ARG_OF_PERICENTER": 263.2793, "MEAN_ANOMALY": 314.4449, "EPHEMERIS_TYPE": 0, "CLASSIFICATION_TYPE": "U", "NORAD_CAT_ID": 66510, "ELEMENT_SET_NO": 999, "REV_AT_EPOCH": 435, "BSTAR": -0.021968, "MEAN_MOTION_DOT": -0.02032457, "MEAN_MOTION_DDOT": 0}, "tle": {"line1": "1 66510U 25263AB  25338.75002315 -.02032457  00000+0 -21968-1 0  9991", "line2": "2 66510  42.9987 172.0195 0001307 263.2793 314.4449 15.66052687  4354"}}, "geometry": {"type": "Point", "coordinates": [120.68776398062542, -34.45735769182175]}}, {"type": "Feature", "properties": {"norad_id": 66511, "name": "STARLINK-35444", "group": "last-30-days", "lat": -32.623570924176825, "lon": 124.7152659081044, "alt_km": 380.2299572790853, "timestamp": "2025-12-05T09:41:17.889105+00:00", "meta": {"OBJECT_NAME": "STARLINK-35444", "OBJECT_ID": "2025-263AC", "EPOCH": "2025-12-04T18:00:02.000160", "MEAN_MOTION": 15.66049622, "ECCENTRICITY": 0.0001319, "INCLINATION": 42.9987, "RA_OF_ASC_NODE": 172.0103, "ARG_OF_PERICENTER": 263.3343, "MEAN_ANOMALY": 318.2266, "EPHEMERIS_TYPE": 0, "CLASSIFICATION_TYPE": "U", "NORAD_CAT_ID": 66511, "ELEMENT_SET_NO": 999, "REV_AT_EPOCH": 435, "BSTAR": -0.021933, "MEAN_MOTION_DOT": -0.02029459, "MEAN_MOTION_DDOT": 0}, "tle": {"line1": "1 66511U 25263AC  25338.75002315 -.02029459  00000+0 -21933-1 0  9992", "line2": "2 66511  42.9987 172.0103 0001319 263.3343 318.2266 15.66049622  4353"}}, "geometry": {"type": "Point", "coordinates": [124.7152659081044, -32.623570924176825]}}, {"type": "Feature", "properties": {"norad_id": 66512, "name": "STARLINK-35366", "group": "last-30-days", "lat": -30.666199820805964, "lon": 128.57425506361105, "alt_km": 380.23175665892177, "timestamp": "2025-12-05T09:41:17.889116+00:00", "meta": {"OBJECT_NAME": "STARLINK-35366", "OBJECT_ID": "2025-263AD", "EPOCH": "2025-12-04T18:00:02.000160", "MEAN_MOTION": 15.66052264, "ECCENTRICITY": 0.0001284, "INCLINATION": 42.9987, "RA_OF_ASC_NODE": 172.0004, "ARG_OF_PERICENTER": 261.17, "MEAN_ANOMALY": 324.223, "EPHEMERIS_TYPE": 0, "CLASSIFICATION_TYPE": "U", "NORAD_CAT_ID": 66512, "ELEMENT_SET_NO": 999, "REV_AT_EPOCH": 435, "BSTAR": -0.021959, "MEAN_MOTION_DOT": -0.02031715, "MEAN_MOTION_DDOT": 0}, "tle": {"line1": "1 66512U 25263AD  25338.75002315 -.02031715  00000+0 -21959-1 0  9999", "line2": "2 66512  42.9987 172.0004 0001284 261.1700 324.2230 15.66052264  4352"}}, "geometry": {"type": "Point", "coordinates": [128.57425506361105, -30.666199820805964]}}, {"type": "Feature", "properties": {"norad_id": 66513, "name": "STARLINK-35692", "group": "last-30-days", "lat": -33.556909823662714, "lon": 122.72268251457629, "alt_km": 380.22559312218164, "timestamp": "2025-12-05T09:41:17.889131+00:00", "meta": {"OBJECT_NAME": "STARLINK-35692", "OBJECT_ID": "2025-263AE", "EPOCH": "2025-12-04T18:00:02.000160", "MEAN_MOTION": 15.66050511, "ECCENTRICITY": 0.0001352, "INCLINATION": 42.9987, "RA_OF_ASC_NODE": 172.0148, "ARG_OF_PERICENTER": 264.0596, "MEAN_ANOMALY": 315.583, "EPHEMERIS_TYPE": 0, "CLASSIFICATION_TYPE": "U", "NORAD_CAT_ID": 66513, "ELEMENT_SET_NO": 999, "REV_AT_EPOCH": 435, "BSTAR": -0.021942, "MEAN_MOTION_DOT": -0.02030267, "MEAN_MOTION_DDOT": 0}, "tle": {"line1": "1 66513U 25263AE  25338.75002315 -.02030267  00000+0 -21942-1 0  9993", "line2": "2 66513  42.9987 172.0148 0001352 264.0596 315.5830 15.66050511  4355"}}, "geometry": {"type": "Point", "coordinates": [122.72268251457629, -33.556909823662714]}}, {"type": "Feature", "properties": {"norad_id": 66514, "name": "SENTINEL-6B", "group": "last-30-days", "lat": 50.49827622823665, "lon": -149.63016110692288, "alt_km": 1320.0251865221471, "timestamp": "2025-12-05T09:41:17.889142+00:00", "meta": {"OBJECT_NAME": "SENTINEL-6B", "OBJECT_ID": "2025-264A", "EPOCH": "2025-12-04T16:35:23.950752", "MEAN_MOTION": 12.85877695, "ECCENTRICITY": 0.0011543, "INCLINATION": 66.039, "RA_OF_ASC_NODE": 179.2209, "ARG_OF_PERICENTER": 268.4543, "MEAN_ANOMALY": 91.5153, "EPHEMERIS_TYPE": 0, "CLASSIFICATION_TYPE": "U", "NORAD_CAT_ID": 66514, "ELEMENT_SET_NO": 999, "REV_AT_EPOCH": 225, "BSTAR": 0.00030155, "MEAN_MOTION_DOT": 1.3e-07, "MEAN_MOTION_DDOT": 0}, "tle": {"line1": "1 66514U 25264A   25338.69124943  .00000013  00000+0  30155-3 0  9990", "line2": "2 66514  66.0390 179.2209 0011543 268.4543  91.5153 12.85877695  2255"}}, "geometry": {"type": "Point", "coordinates": [-149.63016110692288, 50.49827622823665]}}, {"type": "Feature", "properties": {"norad_id": 66516, "name": "STARLINK-35924", "group": "last-30-days", "lat": 11.373776821439806, "lon": 109.78313644259335, "alt_km": 356.4805679699948, "timestamp": "2025-12-05T09:41:17.889152+00:00", "meta": {"OBJECT_NAME": "STARLINK-35924", "OBJECT_ID": "2025-265A", "EPOCH": "2025-12-04T18:00:02.000160", "MEAN_MOTION": 15.72744496, "ECCENTRICITY": 0.0001334, "INCLINATION": 42.9998, "RA_OF_ASC_NODE": 101.2614, "ARG_OF_PERICENTER": 278.615, "MEAN_ANOMALY": 355.9207, "EPHEMERIS_TYPE": 0, "CLASSIFICATION_TYPE": "U", "NORAD_CAT_ID": 66516, "ELEMENT_SET_NO": 999, "REV_AT_EPOCH": 369, "BSTAR": -0.015031, "MEAN_MOTION_DOT": -0.01826982, "MEAN_MOTION_DDOT": 0}, "tle": {"line1": "1 66516U 25265A   25338.75002315 -.01826982  00000+0 -15031-1 0  9996", "line2": "2 66516  42.9998 101.2614 0001334 278.6150 355.9207 15.72744496  3690"}}, "geometry": {"type": "Point", "coordinates": [109.78313644259335, 11.373776821439806]}}, {"type": "Feature", "properties": {"norad_id": 66517, "name": "STARLINK-35937", "group": "last-30-days", "lat": 12.646050398722805, "lon": 111.24477157182211, "alt_km": 356.4851480918833, "timestamp": "2025-12-05T09:41:17.889164+00:00", "meta": {"OBJECT_NAME": "STARLINK-35937", "OBJECT_ID": "2025-265B", "EPOCH": "2025-12-04T18:00:02.000160", "MEAN_MOTION": 15.7274681, "ECCENTRICITY": 0.0001231, "INCLINATION": 42.9999, "RA_OF_ASC_NODE": 101.2571, "ARG_OF_PERICENTER": 272.5739, "MEAN_ANOMALY": 3.8786, "EPHEMERIS_TYPE": 0, "CLASSIFICATION_TYPE": "U", "NORAD_CAT_ID": 66517, "ELEMENT_SET_NO": 999, "REV_AT_EPOCH": 371, "BSTAR": -0.015055, "MEAN_MOTION_DOT": -0.01829592, "MEAN_MOTION_DDOT": 0}, "tle": {"line1": "1 66517U 25265B   25338.75002315 -.01829592  00000+0 -15055-1 0  9993", "line2": "2 66517  42.9999 101.2571 0001231 272.5739   3.8786 15.72746810  3712"}}, "geometry": {"type": "Point", "coordinates": [111.24477157182211, 12.646050398722805]}}, {"type": "Feature", "properties": {"norad_id": 66518, "name": "STARLINK-35962", "group": "last-30-days", "lat": 13.913499703234168, "lon": 112.72417780829092, "alt_km": 356.44043354595306, "timestamp": "2025-12-05T09:41:17.889174+00:00", "meta": {"OBJECT_NAME": "STARLINK-35962", "OBJECT_ID": "2025-265C", "EPOCH": "2025-12-04T18:00:02.000160", "MEAN_MOTION": 15.72751749, "ECCENTRICITY": 0.0001503, "INCLINATION": 42.9998, "RA_OF_ASC_NODE": 101.252, "ARG_OF_PERICENTER": 270.9511, "MEAN_ANOMALY": 7.4142, "EPHEMERIS_TYPE": 0, "CLASSIFICATION_TYPE": "U", "NORAD_CAT_ID": 66518, "ELEMENT_SET_NO": 999, "REV_AT_EPOCH": 371, "BSTAR": -0.015085, "MEAN_MOTION_DOT": -0.01833336, "MEAN_MOTION_DDOT": 0}, "tle": {"line1": "1 66518U 25265C   25338.75002315 -.01833336  00000+0 -15085-1 0  9998", "line2": "2 66518  42.9998 101.2520 0001503 270.9511   7.4142 15.72751749  3711"}}, "geometry": {"type": "Point", "coordinates": [112.72417780829092, 13.913499703234168]}}, {"type": "Feature", "properties": {"norad_id": 66519, "name": "STARLINK-35931", "group": "last-30-days", "lat": 15.1741838499172, "lon": 114.22256150837858, "alt_km": 356.13253836834974, "timestamp": "2025-12-05T09:41:17.889186+00:00", "meta": {"OBJECT_NAME": "STARLINK-35931", "OBJECT_ID": "2025-265D", "EPOCH": "2025-12-04T18:00:02.000160", "MEAN_MOTION": 15.72715926, "ECCENTRICITY": 0.0001403, "INCLINATION": 43, "RA_OF_ASC_NODE": 101.2469, "ARG_OF_PERICENTER": 273.9536, "MEAN_ANOMALY": 6.3565, "EPHEMERIS_TYPE": 0, "CLASSIFICATION_TYPE": "U", "NORAD_CAT_ID": 66519, "ELEMENT_SET_NO": 999, "REV_AT_EPOCH": 371, "BSTAR": -0.014781, "MEAN_MOTION_DOT": -0.01798505, "MEAN_MOTION_DDOT": 0}, "tle": {"line1": "1 66519U 25265D   25338.75002315 -.01798505  00000+0 -14781-1 0  9999", "line2": "2 66519  43.0000 101.2469 0001403 273.9536   6.3565 15.72715926  3713"}}, "geometry": {"type": "Point", "coordinates": [114.22256150837858, 15.1741838499172]}}, {"type": "Feature", "properties": {"norad_id": 66520, "name": "STARLINK-35952", "group": "last-30-days", "lat": 16.41556897899985, "lon": 115.7275578999979, "alt_km": 355.86595743086855, "timestamp": "2025-12-05T09:41:17.889196+00:00", "meta": {"OBJECT_NAME": "STARLINK-35952", "OBJECT_ID": "2025-265E", "EPOCH": "2025-12-04T18:00:02.000160", "MEAN_MOTION": 15.72741507, "ECCENTRICITY": 0.0001412, "INCLINATION": 42.9998, "RA_OF_ASC_NODE": 101.2416, "ARG_OF_PERICENTER": 279.1737, "MEAN_ANOMALY": 3.0326, "EPHEMERIS_TYPE": 0, "CLASSIFICATION_TYPE": "U", "NORAD_CAT_ID": 66520, "ELEMENT_SET_NO": 999, "REV_AT_EPOCH": 371, "BSTAR": -0.015001, "MEAN_MOTION_DOT": -0.01823595, "MEAN_MOTION_DDOT": 0}, "tle": {"line1": "1 66520U 25265E   25338.75002315 -.01823595  00000+0 -15001-1 0  9995", "line2": "2 66520  42.9998 101.2416 0001412 279.1737   3.0326 15.72741507  3715"}}, "geometry": {"type": "Point", "coordinates": [115.7275578999979, 16.41556897899985]}}]}